CCSDS_OMM_VERS = 2.0
CREATION_DATE  = 
ORIGINATOR     = 

OBJECT_NAME    = DELTA 2 R/B(1)
OBJECT_ID      = 1990-008B
CENTER_NAME    = EARTH
REF_FRAME      = TEME
TIME_SYSTEM    = UTC
MEAN_ELEMENT_THEORY = SGP/SGP4

EPOCH          = 2026-02-14T02:55:54.384672
MEAN_MOTION    = 15.52691635
ECCENTRICITY   = .00914139
INCLINATION    = 35.6057
RA_OF_ASC_NODE = 329.1263
ARG_OF_PERICENTER = 38.4568
MEAN_ANOMALY   = 322.2638

EPHEMERIS_TYPE = 0
CLASSIFICATION_TYPE = U
NORAD_CAT_ID   = 20453
ELEMENT_SET_NO = 999
REV_AT_EPOCH   = 92246
BSTAR          = .91622122E-3
MEAN_MOTION_DOT = .70495E-3
MEAN_MOTION_DDOT = 0

CCSDS_OMM_VERS = 2.0
CREATION_DATE  = 
ORIGINATOR     = 

OBJECT_NAME    = COSMOS 2058
OBJECT_ID      = 1990-010A
CENTER_NAME    = EARTH
REF_FRAME      = TEME
TIME_SYSTEM    = UTC
MEAN_ELEMENT_THEORY = SGP/SGP4

EPOCH          = 2026-02-14T03:24:39.335616
MEAN_MOTION    = 15.11100991
ECCENTRICITY   = .00115235
INCLINATION    = 82.4653
RA_OF_ASC_NODE = 70.6261
ARG_OF_PERICENTER = 62.4304
MEAN_ANOMALY   = 297.8095

EPHEMERIS_TYPE = 0
CLASSIFICATION_TYPE = U
NORAD_CAT_ID   = 20465
ELEMENT_SET_NO = 999
REV_AT_EPOCH   = 93868
BSTAR          = .26492743E-3
MEAN_MOTION_DOT = .447E-4
MEAN_MOTION_DDOT = 0

CCSDS_OMM_VERS = 2.0
CREATION_DATE  = 
ORIGINATOR     = 

OBJECT_NAME    = SL-14 R/B
OBJECT_ID      = 1990-010B
CENTER_NAME    = EARTH
REF_FRAME      = TEME
TIME_SYSTEM    = UTC
MEAN_ELEMENT_THEORY = SGP/SGP4

EPOCH          = 2026-02-14T03:32:58.009632
MEAN_MOTION    = 14.83548393
ECCENTRICITY   = .00203995
INCLINATION    = 82.5020
RA_OF_ASC_NODE = 289.5044
ARG_OF_PERICENTER = 21.7158
MEAN_ANOMALY   = 338.4917

EPHEMERIS_TYPE = 0
CLASSIFICATION_TYPE = U
NORAD_CAT_ID   = 20466
ELEMENT_SET_NO = 999
REV_AT_EPOCH   = 92499
BSTAR          = .51356501E-4
MEAN_MOTION_DOT = .448E-5
MEAN_MOTION_DDOT = 0

CCSDS_OMM_VERS = 2.0
CREATION_DATE  = 
ORIGINATOR     = 

OBJECT_NAME    = SL-14 R/B
OBJECT_ID      = 1990-018B
CENTER_NAME    = EARTH
REF_FRAME      = TEME
TIME_SYSTEM    = UTC
MEAN_ELEMENT_THEORY = SGP/SGP4

EPOCH          = 2026-02-14T00:11:29.304384
MEAN_MOTION    = 14.82119164
ECCENTRICITY   = .00166158
INCLINATION    = 82.5180
RA_OF_ASC_NODE = 245.2291
ARG_OF_PERICENTER = 165.1339
MEAN_ANOMALY   = 195.0367

EPHEMERIS_TYPE = 0
CLASSIFICATION_TYPE = U
NORAD_CAT_ID   = 20511
ELEMENT_SET_NO = 999
REV_AT_EPOCH   = 91907
BSTAR          = .5684966E-4
MEAN_MOTION_DOT = .477E-5
MEAN_MOTION_DDOT = 0

CCSDS_OMM_VERS = 2.0
CREATION_DATE  = 
ORIGINATOR     = 

OBJECT_NAME    = HST
OBJECT_ID      = 1990-037B
CENTER_NAME    = EARTH
REF_FRAME      = TEME
TIME_SYSTEM    = UTC
MEAN_ELEMENT_THEORY = SGP/SGP4

EPOCH          = 2026-02-13T19:07:45.706656
MEAN_MOTION    = 15.29094567
ECCENTRICITY   = .00014774
INCLINATION    = 28.4663
RA_OF_ASC_NODE = 202.9405
ARG_OF_PERICENTER = 193.7065
MEAN_ANOMALY   = 166.3491

EPHEMERIS_TYPE = 0
CLASSIFICATION_TYPE = U
NORAD_CAT_ID   = 20580
ELEMENT_SET_NO = 999
REV_AT_EPOCH   = 76965
BSTAR          = .25614219E-3
MEAN_MOTION_DOT = .7675E-4
MEAN_MOTION_DDOT = 0

CCSDS_OMM_VERS = 2.0
CREATION_DATE  = 
ORIGINATOR     = 

OBJECT_NAME    = SL-16 R/B
OBJECT_ID      = 1990-046B
CENTER_NAME    = EARTH
REF_FRAME      = TEME
TIME_SYSTEM    = UTC
MEAN_ELEMENT_THEORY = SGP/SGP4

EPOCH          = 2026-02-14T05:27:39.318624
MEAN_MOTION    = 14.15009756
ECCENTRICITY   = .00150364
INCLINATION    = 71.0012
RA_OF_ASC_NODE = 347.1863
ARG_OF_PERICENTER = 332.3627
MEAN_ANOMALY   = 27.6694

EPHEMERIS_TYPE = 0
CLASSIFICATION_TYPE = U
NORAD_CAT_ID   = 20625
ELEMENT_SET_NO = 999
REV_AT_EPOCH   = 84507
BSTAR          = .20018957E-3
MEAN_MOTION_DOT = .34E-5
MEAN_MOTION_DDOT = 0

CCSDS_OMM_VERS = 2.0
CREATION_DATE  = 
ORIGINATOR     = 

OBJECT_NAME    = COSMOS 2084
OBJECT_ID      = 1990-055A
CENTER_NAME    = EARTH
REF_FRAME      = TEME
TIME_SYSTEM    = UTC
MEAN_ELEMENT_THEORY = SGP/SGP4

EPOCH          = 2026-02-14T06:37:58.805184
MEAN_MOTION    = 15.05495452
ECCENTRICITY   = .00207239
INCLINATION    = 62.7897
RA_OF_ASC_NODE = 55.4227
ARG_OF_PERICENTER = 184.9482
MEAN_ANOMALY   = 175.1417

EPHEMERIS_TYPE = 0
CLASSIFICATION_TYPE = U
NORAD_CAT_ID   = 20663
ELEMENT_SET_NO = 999
REV_AT_EPOCH   = 93279
BSTAR          = .21599521E-3
MEAN_MOTION_DOT = .2932E-4
MEAN_MOTION_DDOT = 0

CCSDS_OMM_VERS = 2.0
CREATION_DATE  = 
ORIGINATOR     = 

OBJECT_NAME    = SL-6 R/B(2)
OBJECT_ID      = 1990-055D
CENTER_NAME    = EARTH
REF_FRAME      = TEME
TIME_SYSTEM    = UTC
MEAN_ELEMENT_THEORY = SGP/SGP4

EPOCH          = 2026-02-14T05:27:20.206080
MEAN_MOTION    = 15.03475275
ECCENTRICITY   = .00212022
INCLINATION    = 62.7847
RA_OF_ASC_NODE = 333.6303
ARG_OF_PERICENTER = 340.5520
MEAN_ANOMALY   = 19.4768

EPHEMERIS_TYPE = 0
CLASSIFICATION_TYPE = U
NORAD_CAT_ID   = 20666
ELEMENT_SET_NO = 999
REV_AT_EPOCH   = 93466
BSTAR          = .21372008E-3
MEAN_MOTION_DOT = .274E-4
MEAN_MOTION_DDOT = 0

CCSDS_OMM_VERS = 2.0
CREATION_DATE  = 
ORIGINATOR     = 

OBJECT_NAME    = SL-8 R/B
OBJECT_ID      = 1990-078B
CENTER_NAME    = EARTH
REF_FRAME      = TEME
TIME_SYSTEM    = UTC
MEAN_ELEMENT_THEORY = SGP/SGP4

EPOCH          = 2026-02-14T02:48:49.973184
MEAN_MOTION    = 14.88271482
ECCENTRICITY   = .03665294
INCLINATION    = 82.9020
RA_OF_ASC_NODE = 272.4976
ARG_OF_PERICENTER = 92.9848
MEAN_ANOMALY   = 271.3370

EPHEMERIS_TYPE = 0
CLASSIFICATION_TYPE = U
NORAD_CAT_ID   = 20775
ELEMENT_SET_NO = 999
REV_AT_EPOCH   = 80579
BSTAR          = .42220333E-3
MEAN_MOTION_DOT = .14374E-3
MEAN_MOTION_DDOT = 0

CCSDS_OMM_VERS = 2.0
CREATION_DATE  = 
ORIGINATOR     = 

OBJECT_NAME    = SL-8 R/B
OBJECT_ID      = 1991-006B
CENTER_NAME    = EARTH
REF_FRAME      = TEME
TIME_SYSTEM    = UTC
MEAN_ELEMENT_THEORY = SGP/SGP4

EPOCH          = 2026-02-13T22:57:17.501184
MEAN_MOTION    = 13.77492211
ECCENTRICITY   = .00237499
INCLINATION    = 82.9442
RA_OF_ASC_NODE = 187.6897
ARG_OF_PERICENTER = 101.5187
MEAN_ANOMALY   = 17.4926

EPHEMERIS_TYPE = 0
CLASSIFICATION_TYPE = U
NORAD_CAT_ID   = 21088
ELEMENT_SET_NO = 999
REV_AT_EPOCH   = 76080
BSTAR          = .104336E-6
MEAN_MOTION_DOT = .16E-6
MEAN_MOTION_DDOT = 0

CCSDS_OMM_VERS = 2.0
CREATION_DATE  = 
ORIGINATOR     = 

OBJECT_NAME    = OKEAN-3
OBJECT_ID      = 1991-039A
CENTER_NAME    = EARTH
REF_FRAME      = TEME
TIME_SYSTEM    = UTC
MEAN_ELEMENT_THEORY = SGP/SGP4

EPOCH          = 2026-02-14T06:30:24.716160
MEAN_MOTION    = 15.04617033
ECCENTRICITY   = .00162275
INCLINATION    = 82.5181
RA_OF_ASC_NODE = 359.5229
ARG_OF_PERICENTER = 53.9717
MEAN_ANOMALY   = 306.3011

EPHEMERIS_TYPE = 0
CLASSIFICATION_TYPE = U
NORAD_CAT_ID   = 21397
ELEMENT_SET_NO = 999
REV_AT_EPOCH   = 86151
BSTAR          = .31835857E-3
MEAN_MOTION_DOT = .451E-4
MEAN_MOTION_DDOT = 0

CCSDS_OMM_VERS = 2.0
CREATION_DATE  = 
ORIGINATOR     = 

OBJECT_NAME    = COSMOS 2151
OBJECT_ID      = 1991-042A
CENTER_NAME    = EARTH
REF_FRAME      = TEME
TIME_SYSTEM    = UTC
MEAN_ELEMENT_THEORY = SGP/SGP4

EPOCH          = 2026-02-14T04:52:05.998944
MEAN_MOTION    = 15.00015247
ECCENTRICITY   = .00136517
INCLINATION    = 82.4955
RA_OF_ASC_NODE = 106.3341
ARG_OF_PERICENTER = 134.4152
MEAN_ANOMALY   = 225.8192

EPHEMERIS_TYPE = 0
CLASSIFICATION_TYPE = U
NORAD_CAT_ID   = 21422
ELEMENT_SET_NO = 999
REV_AT_EPOCH   = 85967
BSTAR          = .14125297E-3
MEAN_MOTION_DOT = .1787E-4
MEAN_MOTION_DDOT = 0

