DELTA 2 R/B(1)          
1 20453U 90008B   26045.12215723  .00070495  00000+0  91622-3 0  9998
2 20453  35.6057 329.1263 0091413  38.4568 322.2638 15.52691635922462
COSMOS 2058             
1 20465U 90010A   26045.14212194  .00004470  00000+0  26493-3 0  9999
2 20465  82.4653  70.6261 0011523  62.4304 297.8095 15.11100991938682
SL-14 R/B               
1 20466U 90010B   26045.14789363  .00000448  00000+0  51357-4 0  9996
2 20466  82.5020 289.5044 0020399  21.7158 338.4917 14.83548393924992
SL-14 R/B               
1 20511U 90018B   26045.00797806  .00000477  00000+0  56850-4 0  9996
2 20511  82.5180 245.2291 0016615 165.1339 195.0367 14.82119164919071
HST                     
1 20580U 90037B   26044.79705679  .00007675  00000+0  25614-3 0  9995
2 20580  28.4663 202.9405 0001477 193.7065 166.3491 15.29094567769659
SL-16 R/B               
1 20625U 90046B   26045.22753841  .00000340  00000+0  20019-3 0  9994
2 20625  71.0012 347.1863 0015036 332.3627  27.6694 14.15009756845077
COSMOS 2084             
1 20663U 90055A   26045.27637506  .00002932  00000+0  21600-3 0  9996
2 20663  62.7897  55.4227 0020723 184.9482 175.1417 15.05495452932799
SL-6 R/B(2)             
1 20666U 90055D   26045.22731720  .00002740  00000+0  21372-3 0  9990
2 20666  62.7847 333.6303 0021202 340.5520  19.4768 15.03475275934665
SL-8 R/B                
1 20775U 90078B   26045.11724506  .00014374  00000+0  42220-3 0  9999
2 20775  82.9020 272.4976 0366529  92.9848 271.3370 14.88271482805799
SL-8 R/B                
1 21088U 91006B   26044.95645256  .00000016  00000+0  10434-6 0  9997
2 21088  82.9442 187.6897 0023749 101.5187  17.4926 13.77492211760801
OKEAN-3                 
1 21397U 91039A   26045.27111940  .00004510  00000+0  31836-3 0  9999
2 21397  82.5181 359.5229 0016227  53.9717 306.3011 15.04617033861519
COSMOS 2151             
1 21422U 91042A   26045.20284721  .00001787  00000+0  14125-3 0  9998
2 21422  82.4955 106.3341 0013651 134.4152 225.8192 15.00015247859679
